[
    {
        "Altitude(m)": 607895.8428603141,
        "Argument of Periapsis(deg)": 0.0,
        "Eccentricity": 0.0,
        "Inclination(deg)": 60.0,
        "Latitude(deg)": 40.998408596198935,
        "Longitude(deg)": 150.08872284358463,
        "Mean Anomaly(deg)": 130.9091,
        "RAAN(deg)": 100.0,
        "Satellite Name": "Test1 448",
        "Satellite Number": 448,
        "Semi-Major Axis(m)": 6980739.136638005,
        "Time(s)": 0
    },
    {
        "Altitude(m)": 607795.1553545395,
        "Argument of Periapsis(deg)": 0.00010418945913296404,
        "Eccentricity": 0.0,
        "Inclination(deg)": 60.0,
        "Latitude(deg)": 40.53073208345973,
        "Longitude(deg)": 150.58531591880504,
        "Mean Anomaly(deg)": 131.5292061454618,
        "RAAN(deg)": 99.99957995086025,
        "Satellite Name": "Test1 448",
        "Satellite Number": 448,
        "Semi-Major Axis(m)": 6980739.136638005,
        "Time(s)": 10
    }
]